{"fetched_at":"2026-07-18T17:29:36.480Z","source":"https://celestrak.org/NORAD/elements/gp.php?GROUP=spire&FORMAT=JSON","constellation":"spire","records":[{"OBJECT_NAME":"LEMUR-2-LEIA-PHILIP","OBJECT_ID":"2025-052AN","EPOCH":"2026-07-18T03:26:58.716096","CLASSIFICATION_TYPE":"U","MEAN_MOTION":14.97392404,"ECCENTRICITY":0.00050536,"INCLINATION":97.6797,"RA_OF_ASC_NODE":90.5694,"ARG_OF_PERICENTER":113.1801,"MEAN_ANOMALY":246.9954,"EPHEMERIS_TYPE":0,"NORAD_CAT_ID":63246,"ELEMENT_SET_NO":999,"REV_AT_EPOCH":7330,"BSTAR":0.000004812063,"MEAN_MOTION_DOT":-2e-8,"MEAN_MOTION_DDOT":0},{"OBJECT_NAME":"LEMUR-2-LIA-MARTIN","OBJECT_ID":"2025-052AQ","EPOCH":"2026-07-17T03:14:31.836480","CLASSIFICATION_TYPE":"U","MEAN_MOTION":14.980375,"ECCENTRICITY":0.00051892,"INCLINATION":97.6861,"RA_OF_ASC_NODE":90.1001,"ARG_OF_PERICENTER":85.6997,"MEAN_ANOMALY":274.4819,"EPHEMERIS_TYPE":0,"NORAD_CAT_ID":63248,"ELEMENT_SET_NO":999,"REV_AT_EPOCH":7316,"BSTAR":0.00013774583,"MEAN_MOTION_DOT":0.0000157,"MEAN_MOTION_DDOT":0},{"OBJECT_NAME":"LEMUR-2-DELOITTE-1","OBJECT_ID":"2025-052BB","EPOCH":"2026-07-18T06:02:16.164672","CLASSIFICATION_TYPE":"U","MEAN_MOTION":14.97797028,"ECCENTRICITY":0.00025409,"INCLINATION":97.6885,"RA_OF_ASC_NODE":91.5291,"ARG_OF_PERICENTER":60.6586,"MEAN_ANOMALY":299.489,"EPHEMERIS_TYPE":0,"NORAD_CAT_ID":63259,"ELEMENT_SET_NO":999,"REV_AT_EPOCH":7334,"BSTAR":0.00021074842,"MEAN_MOTION_DOT":0.00002417,"MEAN_MOTION_DDOT":0},{"OBJECT_NAME":"LEMUR-2-EMERSONROSE","OBJECT_ID":"2025-052BD","EPOCH":"2026-07-18T03:06:03.171168","CLASSIFICATION_TYPE":"U","MEAN_MOTION":14.99305968,"ECCENTRICITY":0.00025673,"INCLINATION":97.6882,"RA_OF_ASC_NODE":92.0287,"ARG_OF_PERICENTER":54.8265,"MEAN_ANOMALY":305.3198,"EPHEMERIS_TYPE":0,"NORAD_CAT_ID":63261,"ELEMENT_SET_NO":999,"REV_AT_EPOCH":7337,"BSTAR":0.00019662007,"MEAN_MOTION_DOT":0.00002342,"MEAN_MOTION_DDOT":0},{"OBJECT_NAME":"LEMUR-2-MARACHE-FRAN","OBJECT_ID":"2025-052BE","EPOCH":"2026-07-17T22:47:45.760416","CLASSIFICATION_TYPE":"U","MEAN_MOTION":15.00325136,"ECCENTRICITY":0.00055225,"INCLINATION":97.6823,"RA_OF_ASC_NODE":92.2216,"ARG_OF_PERICENTER":241.3686,"MEAN_ANOMALY":118.6983,"EPHEMERIS_TYPE":0,"NORAD_CAT_ID":63262,"ELEMENT_SET_NO":999,"REV_AT_EPOCH":7337,"BSTAR":0.00013706438,"MEAN_MOTION_DOT":0.0000166,"MEAN_MOTION_DDOT":0},{"OBJECT_NAME":"LEMUR-2-THEFALCONER","OBJECT_ID":"2025-052BG","EPOCH":"2026-07-17T22:45:42.042528","CLASSIFICATION_TYPE":"U","MEAN_MOTION":14.97569358,"ECCENTRICITY":0.00004739,"INCLINATION":97.6821,"RA_OF_ASC_NODE":90.8183,"ARG_OF_PERICENTER":247.5974,"MEAN_ANOMALY":112.5198,"EPHEMERIS_TYPE":0,"NORAD_CAT_ID":63264,"ELEMENT_SET_NO":999,"REV_AT_EPOCH":7329,"BSTAR":0.000095366085,"MEAN_MOTION_DOT":0.00001056,"MEAN_MOTION_DDOT":0},{"OBJECT_NAME":"LEMUR-2-UNTITLED-SC","OBJECT_ID":"2025-061A","EPOCH":"2026-07-17T21:30:42.505056","CLASSIFICATION_TYPE":"U","MEAN_MOTION":15.13655854,"ECCENTRICITY":0.00194675,"INCLINATION":97.5659,"RA_OF_ASC_NODE":174.0411,"ARG_OF_PERICENTER":154.0615,"MEAN_ANOMALY":206.1596,"EPHEMERIS_TYPE":0,"NORAD_CAT_ID":63351,"ELEMENT_SET_NO":999,"REV_AT_EPOCH":7223,"BSTAR":0.000099399022,"MEAN_MOTION_DOT":0.00001728,"MEAN_MOTION_DDOT":0},{"OBJECT_NAME":"LEMUR-2-ESPERANZA","OBJECT_ID":"2025-061B","EPOCH":"2026-07-17T20:54:55.057248","CLASSIFICATION_TYPE":"U","MEAN_MOTION":15.13762207,"ECCENTRICITY":0.00190656,"INCLINATION":97.5666,"RA_OF_ASC_NODE":174.1173,"ARG_OF_PERICENTER":153.4067,"MEAN_ANOMALY":206.8147,"EPHEMERIS_TYPE":0,"NORAD_CAT_ID":63352,"ELEMENT_SET_NO":999,"REV_AT_EPOCH":7223,"BSTAR":0.00010092637,"MEAN_MOTION_DOT":0.0000176,"MEAN_MOTION_DDOT":0},{"OBJECT_NAME":"LEMUR-2-KREMPEL-BRO2","OBJECT_ID":"2025-061C","EPOCH":"2026-07-17T21:21:09.117504","CLASSIFICATION_TYPE":"U","MEAN_MOTION":15.14188924,"ECCENTRICITY":0.00202054,"INCLINATION":97.571,"RA_OF_ASC_NODE":174.7078,"ARG_OF_PERICENTER":146.3722,"MEAN_ANOMALY":213.8796,"EPHEMERIS_TYPE":0,"NORAD_CAT_ID":63353,"ELEMENT_SET_NO":999,"REV_AT_EPOCH":7225,"BSTAR":0.000102687,"MEAN_MOTION_DOT":0.00001815,"MEAN_MOTION_DDOT":0},{"OBJECT_NAME":"LEMUR-2-THERMORAPTOR","OBJECT_ID":"2025-061D","EPOCH":"2026-07-17T20:52:56.539776","CLASSIFICATION_TYPE":"U","MEAN_MOTION":15.1427181,"ECCENTRICITY":0.00199287,"INCLINATION":97.5717,"RA_OF_ASC_NODE":174.77,"ARG_OF_PERICENTER":145.3232,"MEAN_ANOMALY":214.9303,"EPHEMERIS_TYPE":0,"NORAD_CAT_ID":63354,"ELEMENT_SET_NO":999,"REV_AT_EPOCH":7225,"BSTAR":0.00010339683,"MEAN_MOTION_DOT":0.00001832,"MEAN_MOTION_DDOT":0},{"OBJECT_NAME":"LEMUR-2-NEUROSPICY","OBJECT_ID":"2025-061E","EPOCH":"2026-07-17T21:43:53.304384","CLASSIFICATION_TYPE":"U","MEAN_MOTION":15.14390742,"ECCENTRICITY":0.00177437,"INCLINATION":97.5645,"RA_OF_ASC_NODE":174.4075,"ARG_OF_PERICENTER":148.0319,"MEAN_ANOMALY":212.1993,"EPHEMERIS_TYPE":0,"NORAD_CAT_ID":63355,"ELEMENT_SET_NO":999,"REV_AT_EPOCH":7226,"BSTAR":0.00010329338,"MEAN_MOTION_DOT":0.00001835,"MEAN_MOTION_DDOT":0},{"OBJECT_NAME":"LEMUR-2-TILLINFINITY","OBJECT_ID":"2025-061F","EPOCH":"2026-07-18T04:38:04.091424","CLASSIFICATION_TYPE":"U","MEAN_MOTION":15.14976823,"ECCENTRICITY":0.00192967,"INCLINATION":97.563,"RA_OF_ASC_NODE":175.0058,"ARG_OF_PERICENTER":136.1599,"MEAN_ANOMALY":224.1169,"EPHEMERIS_TYPE":0,"NORAD_CAT_ID":63356,"ELEMENT_SET_NO":999,"REV_AT_EPOCH":7233,"BSTAR":0.000098283797,"MEAN_MOTION_DOT":0.00001774,"MEAN_MOTION_DDOT":0},{"OBJECT_NAME":"LEMUR-2-KREMPEL-BRO1","OBJECT_ID":"2025-061G","EPOCH":"2026-07-18T04:05:34.311264","CLASSIFICATION_TYPE":"U","MEAN_MOTION":15.14782932,"ECCENTRICITY":0.00199209,"INCLINATION":97.5632,"RA_OF_ASC_NODE":174.8906,"ARG_OF_PERICENTER":137.5923,"MEAN_ANOMALY":222.6852,"EPHEMERIS_TYPE":0,"NORAD_CAT_ID":63357,"ELEMENT_SET_NO":999,"REV_AT_EPOCH":7232,"BSTAR":0.00010246945,"MEAN_MOTION_DOT":0.00001842,"MEAN_MOTION_DDOT":0},{"OBJECT_NAME":"LEMUR-2-LANGER2SPACE","OBJECT_ID":"2025-061H","EPOCH":"2026-07-18T04:52:41.974176","CLASSIFICATION_TYPE":"U","MEAN_MOTION":15.14476819,"ECCENTRICITY":0.00176555,"INCLINATION":97.5636,"RA_OF_ASC_NODE":174.7248,"ARG_OF_PERICENTER":145.4029,"MEAN_ANOMALY":214.8355,"EPHEMERIS_TYPE":0,"NORAD_CAT_ID":63358,"ELEMENT_SET_NO":999,"REV_AT_EPOCH":7231,"BSTAR":0.00010483337,"MEAN_MOTION_DOT":0.00001868,"MEAN_MOTION_DDOT":0},{"OBJECT_NAME":"LEMUR-2-BALTO","OBJECT_ID":"2025-052BH","EPOCH":"2026-07-16T22:24:34.244352","CLASSIFICATION_TYPE":"U","MEAN_MOTION":15.00373082,"ECCENTRICITY":0.00050442,"INCLINATION":97.6925,"RA_OF_ASC_NODE":91.2085,"ARG_OF_PERICENTER":320.2373,"MEAN_ANOMALY":39.848,"EPHEMERIS_TYPE":0,"NORAD_CAT_ID":63395,"ELEMENT_SET_NO":999,"REV_AT_EPOCH":7322,"BSTAR":0.0001988074,"MEAN_MOTION_DOT":0.00002437,"MEAN_MOTION_DDOT":0},{"OBJECT_NAME":"LEMUR-2-KRISH","OBJECT_ID":"2025-135AK","EPOCH":"2026-07-18T02:27:35.592192","CLASSIFICATION_TYPE":"U","MEAN_MOTION":14.96459459,"ECCENTRICITY":0.00011306,"INCLINATION":97.7768,"RA_OF_ASC_NODE":313.7742,"ARG_OF_PERICENTER":101.0132,"MEAN_ANOMALY":259.1216,"EPHEMERIS_TYPE":0,"NORAD_CAT_ID":64561,"ELEMENT_SET_NO":999,"REV_AT_EPOCH":5854,"BSTAR":0.00017469818,"MEAN_MOTION_DOT":0.00001924,"MEAN_MOTION_DDOT":0}]}
